[{"OBJECT_NAME":"SNUGLITE","OBJECT_ID":"2018-099AC","EPOCH":"2026-03-09T16:09:06.907968","MEAN_MOTION":15.24835996,"ECCENTRICITY":0.00013388,"INCLINATION":97.4003,"RA_OF_ASC_NODE":124.0343,"ARG_OF_PERICENTER":280.5957,"MEAN_ANOMALY":79.5129,"EPHEMERIS_TYPE":0,"CLASSIFICATION_TYPE":"U","NORAD_CAT_ID":43784,"ELEMENT_SET_NO":999,"REV_AT_EPOCH":39814,"BSTAR":0.00055962727,"MEAN_MOTION_DOT":0.00013838,"MEAN_MOTION_DDOT":0},{"OBJECT_NAME":"YAOGAN-43 02F","OBJECT_ID":"2024-156F","EPOCH":"2026-03-09T13:00:32.217984","MEAN_MOTION":15.22951134,"ECCENTRICITY":0.00011647,"INCLINATION":34.9922,"RA_OF_ASC_NODE":104.6026,"ARG_OF_PERICENTER":214.3893,"MEAN_ANOMALY":145.6747,"EPHEMERIS_TYPE":0,"CLASSIFICATION_TYPE":"U","NORAD_CAT_ID":60950,"ELEMENT_SET_NO":999,"REV_AT_EPOCH":8424,"BSTAR":0.00046453388,"MEAN_MOTION_DOT":0.00011154,"MEAN_MOTION_DDOT":0}]
